[{"OBJECT_NAME":"GAOFEN-9 05","OBJECT_ID":"2020-058A","EPOCH":"2026-03-10T00:01:50.876256","MEAN_MOTION":15.30293976,"ECCENTRICITY":0.0010522,"INCLINATION":97.2228,"RA_OF_ASC_NODE":111.963,"ARG_OF_PERICENTER":91.0204,"MEAN_ANOMALY":269.2242,"EPHEMERIS_TYPE":0,"CLASSIFICATION_TYPE":"U","NORAD_CAT_ID":46232,"ELEMENT_SET_NO":999,"REV_AT_EPOCH":30843,"BSTAR":0.00025120304,"MEAN_MOTION_DOT":7.299e-5,"MEAN_MOTION_DDOT":0},{"OBJECT_NAME":"STARLINK-34492","OBJECT_ID":"2025-133B","EPOCH":"2026-03-09T13:05:36.256992","MEAN_MOTION":15.30203368,"ECCENTRICITY":0.0001246,"INCLINATION":53.158,"RA_OF_ASC_NODE":117.6631,"ARG_OF_PERICENTER":58.6405,"MEAN_ANOMALY":301.4717,"EPHEMERIS_TYPE":0,"CLASSIFICATION_TYPE":"U","NORAD_CAT_ID":64473,"ELEMENT_SET_NO":999,"REV_AT_EPOCH":4116,"BSTAR":0.00078907,"MEAN_MOTION_DOT":0.00023086,"MEAN_MOTION_DDOT":0}]
